[{"OBJECT_NAME":"STARLINK-2598","OBJECT_ID":"2021-038AJ","EPOCH":"2026-03-09T22:29:54.889440","MEAN_MOTION":15.30183076,"ECCENTRICITY":0.00010855,"INCLINATION":53.16,"RA_OF_ASC_NODE":344.2151,"ARG_OF_PERICENTER":106.9837,"MEAN_ANOMALY":253.1283,"EPHEMERIS_TYPE":0,"CLASSIFICATION_TYPE":"U","NORAD_CAT_ID":48385,"ELEMENT_SET_NO":999,"REV_AT_EPOCH":26852,"BSTAR":-1.463367e-5,"MEAN_MOTION_DOT":-7.92e-6,"MEAN_MOTION_DDOT":0},{"OBJECT_NAME":"HONGHU 2","OBJECT_ID":"2023-193C","EPOCH":"2026-03-09T23:21:07.139520","MEAN_MOTION":15.21543878,"ECCENTRICITY":0.00399876,"INCLINATION":97.2779,"RA_OF_ASC_NODE":62.3901,"ARG_OF_PERICENTER":264.1736,"MEAN_ANOMALY":95.4941,"EPHEMERIS_TYPE":0,"CLASSIFICATION_TYPE":"U","NORAD_CAT_ID":58555,"ELEMENT_SET_NO":999,"REV_AT_EPOCH":8691,"BSTAR":0.0061775359,"MEAN_MOTION_DOT":0.00144707,"MEAN_MOTION_DDOT":0}]
